[{"OBJECT_NAME":"ICEYE-X11","OBJECT_ID":"2021-059AR","EPOCH":"2026-03-09T23:58:26.261184","MEAN_MOTION":15.74026715,"ECCENTRICITY":0.00046944,"INCLINATION":97.6457,"RA_OF_ASC_NODE":256.9655,"ARG_OF_PERICENTER":333.4383,"MEAN_ANOMALY":26.664,"EPHEMERIS_TYPE":0,"CLASSIFICATION_TYPE":"U","NORAD_CAT_ID":48918,"ELEMENT_SET_NO":999,"REV_AT_EPOCH":26228,"BSTAR":0.00071987659,"MEAN_MOTION_DOT":0.00103309,"MEAN_MOTION_DDOT":0},{"OBJECT_NAME":"STARLINK-11326 [DTC]","OBJECT_ID":"2024-213C","EPOCH":"2026-03-09T07:15:55.724256","MEAN_MOTION":15.69786147,"ECCENTRICITY":0.00015311,"INCLINATION":53.1566,"RA_OF_ASC_NODE":43.2229,"ARG_OF_PERICENTER":70.7973,"MEAN_ANOMALY":289.321,"EPHEMERIS_TYPE":0,"CLASSIFICATION_TYPE":"U","NORAD_CAT_ID":62010,"ELEMENT_SET_NO":999,"REV_AT_EPOCH":7485,"BSTAR":0.0019523747,"MEAN_MOTION_DOT":0.00243788,"MEAN_MOTION_DDOT":0}]
